S/N,Name,City,Address,Phone,Owner
1,ABBASOĞLU ECZANESİ,LEFKOŞA,ŞhT.Mustafa Ruso Cad. N0:112 /D Yarim Gelinlik yanı Küçük Kaymaklı Lefkoşa,(0392) 227 16 64,Ecz. İsmet Abbasoğlu
2,ADAHAN ECZANESİ,LEFKOŞA,Gaz.Kemal Aşık Cad. N0:17 Terminal Yolu Royal Hotel Yanı Yar Plus yanı Küçük Kaymaklı Lefkoşa,(0392) 227 37 00,Ecz. Duygu Adahan Kuran
3,AHMET MISIRLI ECZANESİ,LEFKOŞA,Gaz.Hasan Tahisn Cad. 42/6 Lemar Yolu Serena Butik karşısı Kermiya,(0392) 223 93 93,Ecz. İldem Mısırlı
4,AKDENİZ ECZANESİ,LEFKOŞA,Atatürk Cad. N0:106 Belça Market yanı Yenişehir Lefkoşa,(0392) 228 82 77,Ecz. Zehra Öksüz
5,AKDORA ECZANESİ,LEFKOŞA,Mumcu Tepe Sos. Anıttepe Hamitköy,(0392) 225 33 55,Ecz. Meliz Akdora
6,ALİ ERSOY ECZANESİ,LEFKOŞA,Kemal Şemiler Cad. N0:65 Ünsaldı Apt. Aydemet Metehan Zephyir Café yanı,(0392) 330 12 77,Ecz. Ali Ersoy
7,ALPDOĞAN ECZANESİ,LEFKOŞA,"Nazım Hikmet Cad. No: 124/4 Metehan Çemberi, yeni kulliye karşısı, Metehan Kermiya Lefkoşa",(0392) 330 10 36,Ecz. Nejmi Alpdoğan
8,APAYDIN ECZANESİ,LEFKOŞA,"2. Selim Cad. Arabacıoğlu Apt. Köşlüçiftlik, Lefkoşa",(0392) 227 51 59,Ecz. Duygu Akova
9,ARASTA ECZANESİ,LEFKOŞA,"Şht. Eybil H. Çetin Sokak. No: 14, Lefkoşa (Surlariçi Arasta Çarşısı Büyük Han Yanı)",(0392) 229 11 12,Ecz. Simge Sonap
10,ARDA ULUPINAR ECZANESI,LEFKOŞA,"Bedrettin caddesi, Kızılay Münür Dilaver sokak, kuzey kavşağı No: 4, Lefkoşa",(0533) 824 00 64,Ecz. Arda Ulupınar
11,ARZUM DAVULCU ECZANESİ,LEFKOŞA,"Şht. Mustafa Yusuf Hacı Sok. No:3, Polis Genel Müdürlüğü Yolu, Chıchen Planeti geçince, Vakıflar Bankası karşısı ara yolu, B1 Market yanı, Yenişehir, Lefkoşa",(0392) 227 14 57,Ecz. Arzum Davulcu
12,AŞAN ECZANESİ,LEFKOŞA,"Selçuk Avkıran Sok. No: 1, Derya butik ve Metropol süpermarket arası, Taşkınköy, Lefkoşa",(0392) 225 57 30,Ecz. Salih Aşan
13,ATAER ECZANESİ,LEFKOŞA,"Şht. Zehra Mustafa Sokak No: 5, Gönyeli, Lefkoşa",(0392) 223 24 85,Ecz. İlayda Sebatlı
14,AYŞE BIYIKOĞLU ECZANESİ,LEFKOŞA,Şht.Hüseyin Amca Cad. N0:77 Dükkan 2 Gönyeli,(0392) 223 67 50,Ecz. Ayşe Bıyıkoğlu
15,AYŞE KAPTAN ECZANESİ,LEFKOŞA,"Girne Cad. No: 50, Saray Hotel karşısı, Lefkoşa",(0392) 227 45 96,Ecz. Meliz Emel
16,AYŞE KETEN ECZANESİ,LEFKOŞA,Sakarya Sok. No:18 Alayköy Lefkoşa,(0392) 235 77 22,Ecz. Ayşe Keten
17,BAHAR NURLUÖZ ECZANESİ,LEFKOŞA,Hacet Sok.N0:8 Din Sitesi Karşısı İş Bankası yanı Hamitköy,(0392) 225 61 61,Ecz. Bahar Nurluöz
18,BALIN ECZANESİ,LEFKOŞA,"Dr. Burhan Nalbantoğlu Cad. Devlet Hastanesi ve Çember Restorant yanı, Lefkoşa",(0392) 223 18 13,Ecz. Eda Tülek
19,BEHAYİ YILMABAŞAR ECZANESİ,LEFKOŞA,"Okullar Yolu Sokak. No: 66A Dış Kapı, Küçük Kaymaklı, Lefkoşa",(0392) 227 11 16,Ecz. Behayi Yılmabaşar
20,BERİL ECZANESİ,LEFKOŞA,Müftü Ziayi Efendi Sok.Bekiroğlu İşHanı 28 B Leflkoşa,(0392) 227 73 10,Ecz. Beril Çakır
21,BERİLAL ECZANESİ,LEFKOŞA,Atatürk Cad. No:21 Muhtar Yusuf Galeria Lefkoşs,(0392) 228 00 16,Ecz. Alev Çakır
22,BİLGE TÜRKSEVEN ECZANESİ,LEFKOŞA,Bolu Sok. Sosyal Konutlar 10. Blok Dük.No: 2 KüçükKaymaklı Stadyumu yolu Lefkoşa,(0392) 228 55 15,Ecz. Bilge Türkseven
23,BİRGÜN ECZANESİ,LEFKOŞA,Kemal Aksay Cad. No:36 Lastikçi Yusuf Çocuk Ltd. Karşısı Taşkınköy Lefkoşa,(0392) 225 24 12,Ecz. Fatma Şentürk
24,BUSE KARŞILI ECZANESİ,LEFKOŞA,Demir Sok.Vedat Benzinci sonrası alt geçit yolu üzeri Cranberry-s Dans Okulu yanı Yenikent,(0392) 224 15 45,Ecz. Buse Karşılı
25,ÇAĞANSOY ECZANESİ,LEFKOŞA,Kenan Evren Cad. Mustafa Dereli İş Merkezi NO:4 Yenikent Gönyeli,(0392) 223 67 66,Ecz. Zehra Çağansoy
26,ÇAĞIN KORKMAZER ECZANESİ,LEFKOŞA,Atatürk Cad. N0:17/A Yenişehir Lefkoşa (1001 Çeşit yanı),(0392) 228 09 09,Ecz. Çağın Korkmazer
27,ÇAĞLAYAN ECZANESİ,LEFKOŞA,İffet Oruz Sok. Dük.A/B Çağlayan Lefkoşa,(0392) 227 61 81,Ecz. Mine Akkoyun
28,CANEŞ ECZANESİ,LEFKOŞA,Şht.Mustafa Mehmet Sok.Yenergalı Plaza N0:3 Life Hospital yanı Taşkınköy,(0392) 225 52 20,Ecz. Caneş Tatlıcıoğlu
29,ÇELER ECZANESİ,LEFKOŞA,Hazar Sok. N0:19 SOS Çocuk Köyü yanı Kıbrıs Gaztesi karşısı,(0392) 225 75 05,Ecz. Bahire Çeler
30,CEMALİYE AĞAOĞLU ECZANESİ,LEFKOŞA,"Raif Denktaş Cad. No: 37 Dük. No: 1, Behiye Apt. Göçmenköy, Lefkoşa",(0392) 223 36 63,Ecz. Cemaliye Ağaoğlu
31,CEMİL BEY ECZANESİ,LEFKOŞA,Atatürk Cad. N0:85 B-C Alayköy,(0533) 838 01 45,Ecz. Ali Şensoy
32,CEMİLE FIRINCIOĞLULARI ECZANESİ,LEFKOŞA,"Şht. Gaz. Hasan Tahsin Cad. 81/C No: 9, China-Bazaar karşısı, Lemar (Molto) yolu, Ortaköy",(0392) 223 82 22,Ecz. Cemile Fırıncıoğluları
33,CEMRE ECZANESİ,LEFKOŞA,"Maramara Bölgesi 30. Sok. No: 1, Devpa Süpermarket arkası, Lefkoşa",(0392) 227 65 49,Ecz. Cemil Fahrioğlu
34,CEVHER ECZANESİ,LEFKOŞA,Mehmet Akif Cad. 101 /E Pascucci Café karşısı Dereboyu Lefkoşa,(0392) 227 72 51,Ecz. Cevher Cem
35,ÇINARLI ECZANESİ,LEFKOŞA,Güven Sok. 21 A Hamitköy (Ekin Adademir Yurtları arkası),(0392) 225 23 60,Ecz. Nezire Çınarlı
36,DAĞMAN ECZANESİ,LEFKOŞA,"Burhan Nalbantoğlu Devlet Hastanesi Yolu, Ortaköy Camii Sırası, Aliriza Efendi Cad. Vakıflar İşhanı, Gülşenoğulları Baklava Karşısı, Ortaköy, Lefkoşa",(0392) 330 10 22,Ecz. Gökcen Dağman
37,DAMLA KARDÜZ ECZANESİ,LEFKOŞA,"Atatürk Cad. Kolan British karşısı, Gönyeli, Lefkoşa",(0392) 223 45 65,Ecz.Damla Kardüz Özalkın
38,DENİZ ÇORBA ECZANESİ,LEFKOŞA,"Belediye Bulvarı 91/B, Miraje Restorant çaprazı, KIB-ET yanı, ŞAŞA karşısı Yenikent, Lefkoşa",(0392) 223 72 72,Ecz. Deniz Çorba
39,DEREBOYU ECZANESİ,LEFKOŞA,"Mehmet Akif Cad. Dış Kapı No: 51/2, Köşklüçiftlik, Lefkoşa",(0533) 839 14 14,Ecz. Elif Ebru Koyuncu
40,DERYA ECZANESİ,LEFKOŞA,Mehmet Akif Cad. 53/3 Dereboyu Lefkoşa,(0392) 227 61 98,Ecz. Derya Akbatur
41,DİDEM ÖZKAYALI ECZANESİ,LEFKOŞA,"2. Selim Caddesi, Mustafa Hacıali 20 Apartmanı No: 9, Köşklüçiftlik, Lefkoşa",(0392) 227 71 11,Ecz. Didem Özkayalı
42,DİLAY KILÇIK ECZANESİ,LEFKOŞA,"Şht. Cumhur Yüzlü Sokak, Hacıali Apt. Blok B No: 27, Ortaköy, Lefkoşa",(0533) 830 08 79,Ecz. Dilay Kılçık
43,DİLEK ECZANESİ,LEFKOŞA,Şht.Evcet Yusuf Cad. N0:37/A Kızılbaş Lefkoşa,(0392) 228 18 67,Ecz. Dilek Taçoy
44,DİMAY KAĞCAN ECZANESİ,LEFKOŞA,"9. Yavuz Konnolu sok. Ortaköy, Lefkoşa",(0392) 223 86 75,Ecz. Dimay Kağcan
45,EBRU BAŞAY ECZANESİ,LEFKOŞA,"Mehmet Akif Cad. No:78/3, Dereboyu, Lefkoşa",(0392) 227 02 42,Ecz. Ebru Başay
46,ECEGÜL ECZANESİ,LEFKOŞA,Şht.Kemal Ünal Cad. N0:118 /B Metropol Yolu Taşkınköy Lefkoşa,(0392) 225 58 47,Ecz. Nevil Saadetoğlu
47,ECEM ECZANESİ,LEFKOŞA,Bedrettin Demirel Cad.No: 127 Lefkoşa,(0392) 228 89 56,Ecz. Ece Ünsal Soyer
48,EDA ENVER ECZANESİ,LEFKOŞA,Şht.Arseven Sk.No:6 Devlet Hast.Karşısı Lefkoşa,(0392) 223 48 10,Ecz. Eda Enver Zaim
49,EMEL ATAÇAĞ ECZANESİ,LEFKOŞA,Atatürk Cad. Şakir Apt.7 Zemin Kat No:65 Gönyeli,(0392) 224 06 11,Ecz. Emel Ataçağ
50,EMİNE KESKİN ECZANESİ,LEFKOŞA,"Atatürk Cad. Yasemin Apt. Dük. No:1, Gönyeli İlkokulu karşısı, Meyhane Müzeyyen yanı, Lefkoşa",(0533) 879 81 93,Ecz. Emine Keskin
51,ENVER ECZANESİ,LEFKOŞA,74 Atatürk Meydanı Lefkoşa,(0392) 227 25 67,Ecz. Enver Emin Özbeşer
52,EREN ECZANESİ,LEFKOŞA,Şht.Kemal Ünal Cad. N0:53 Lefkoşa Metropol yolu Taşkınköy,(0392) 225 24 74,Ecz. Ceyda Neriman Eren
53,ERSAĞ ECZANESİ,LEFKOŞA,Fuar Yolu üzeri Elysium Düğün Salonu karşısı Piron Restorant yanı Lefkoşa,(0392) 223 62 17,Ecz. Hasan Özerk
54,ERTUNGA ECZANESİ,LEFKOŞA,"Marmara Bölgesi 4, Sokak No: 19, Eski Ayko Ayakkabı Fabrikası karşısıLefkoşa",(0533) 880 82 22,Ecz. Çağla Ertunga
55,FATMA AŞİNA ECZANESİ,LEFKOŞA,Aliriza Efendi Cad. Dük.4 No: 38/D Ortaköy Telsim Karşısı - Turcell Yanı Lefkoşa,(0533) 883 22 96,Ecz. Fatma Aşina
56,FATMA TAHSİN ECZANESİ,LEFKOŞA,Atatürk Cd 107 B Gönyeli Lefkoşa,(0392) 224 09 00,Ecz. Sevgi Karabekir
57,FATMA YÜRÜN ECZANESİ,LEFKOŞA,Bolu Sok. Dük. 74/C Küçük Kaymaklı Lefkoşa,(0392) 227 10 80,Ecz. Fatma Yürün
58,FERİN ECZANESİ,LEFKOŞA,"Cebeci Sok.N0:35 Arda Market yanı İş Bankası sırası Yenikent, Gönyeli",(0392) 223 42 82,Ecz. Dicle Tekiner
59,FİRUZ ERGİL ECZANESİ,LEFKOŞA,Yakındoğu Bulvarı 40/D Taşkınköy Lefkoşa,(0392) 223 19 02,Ecz. Firuz Ergil
60,FULDEN DONANGİL ECZANESİ,LEFKOŞA,Osman Paşa Cad. N0:29/B K.Çiftlik Lefkoşa- Mardo karşısı,(0392) 228 25 72,Ecz. Fulden Donangil
61,GALEN ECZANESİ,LEFKOŞA,Kemal Aşık Cad. 62/1 Otobüs Terminali karşısı Küçük Kaymaklı Lefkoşa,(0392) 227 26 03,Ecz. Bahire Turganer
62,GİZEM BEHLÜL ECZANESİ,LEFKOŞA,N0:29 Saykal Apt. Atatürk Cad. Deniz Shop karşısı Gönyeli,(0392) 223 45 75,Ecz. Gizem Behlül
63,GÖNÜL ECZANESİ,LEFKOŞA,Şht.Gaz.Hasan Tahsin Cad. Hacı Ali Apt. No:13 Kermiya Ortaköy,(0392) 227 84 61,Ecz. Gönül Akça
64,GÖNYELİ ECZANESİ,LEFKOŞA,"Ünveren Sok. Ahmet Dereli Apt. Dük. No:13, Concorde Tower Hotel karşısı, Mr. Pound yolu üzeri, Yenikent, Gönyeli",(0533) 856 64 44,Ecz. Kezban Doygunel
65,GÜLİSTAN ARICI ECZANESİ,LEFKOŞA,"Hasane Ilgaz 13/C, Pegasus Hava Yolları yanı, Köşlüçiftlik, Lefkoşa",(0533) 841 28 39,Ecz. Gülistan Arıcı
66,GÜLİZAR ÖZTEKNİK ECZANESİ,LEFKOŞA,"Şht. Mustafa Ruso Cad. Yusuf Galeria 2 Dük. 45/2, Eski Lemar karşısı, Ekor karşısı, Kücük Kaymaklı, Lefkoşa",(0392) 227 91 55,Ecz. Gülizar Özteknik
67,GÜLNUR ECZANESİ,LEFKOŞA,N0:48 /B Kemal Şemiler Cad. Kalın Yol üzeri Güvenir Göz Hastanesi yanı Köseoğlu market sırası Metehan Lefkoşa,(0392) 223 66 30,Ecz. Gülnur Çelık
68,GÜNEY ENGİNOL ECZANESİ,LEFKOŞA,"Yzb. Tekin Yurdabak Caddesi No: 25, Aroğlu karşısı, Ortaköy, Lefkoşa",(0392) 227 66 95,Ecz. Güney Enginol
69,HALKSEVER ECZANESİ,LEFKOŞA,Şht.Hüseyin Amca Cad. N0:97 Gönyeli,(0392) 223 10 50,Ecz. Enver Halksever
70,HARİKA OTAĞ ECZANESİ,LEFKOŞA,Cebeci Sok. 25 İş Bankasi yanı Yenikent Gönyeli Lefkoşa,(0392) 224 04 15,Ecz. Harika Otağ
71,HAYAT ECZANESİ,LEFKOŞA,Girne Cad.Vakıflar Çarşısı No:2 Lefkoşa,(0392) 227 51 26,Ecz. Ersel Tüccaroğlu
72,HAZAL REİS ECZANESİ,LEFKOŞA,İplik Pazarı Lefkoşa,(0392) 228 65 05,Ecz. Hazal Reis
73,HÜSEYİN KERİM SAKALLI ECZANESİ,LEFKOŞA,"Şht. Yzb. Tekin Yurdabak Cad. Mardo Göçmenköy yolu, Yeni Yüzyıl Anaokulu yanı, Ortaköy, Lefkoşa",(0392) 228 46 00,Ecz. Hüseyin Kerim Sakallı
74,İMGE ECZANESİ,LEFKOŞA,"Yaman Bey Sokak No: 8, Göçmenköy, Lefkoşa (Şht. Yalçın İlkokulu Karşısı)",(0392) 223 59 51,Ecz. Halit Kavçın
75,İNANLI ECZANESİ,LEFKOŞA,Şht.Mustafa Ruso Cad.Dev.Sosyal K.Apt.Altı K.Kaymaklı,(0392) 227 23 90,Ecz. Ali İnanlı
76,İNCİRLİ ECZANESİ,LEFKOŞA,"46/A Kemal Şemiler Cad. Aydemet - Kermiya, Lefkoşa",(0392) 330 20 22,Ecz. Gülçin İncirli
77,İSMET ECZANESİ,LEFKOŞA,"Bedreddin Demirel Caddesi No: 92 Önder AVM karşısında Ticaret Odası yanı, Lefkoşa",(0392) 228 15 40,Ecz. İsmet Abohorlu
78,İZEM ECZANESİ,LEFKOŞA,İsmail Beyoğlu Cad. 44 / A Küçük Kaymaklı Lefkoşa Eray Garaj yanı,(0392) 228 00 40,Ecz. İzem Özvurulmuş
79,KAPTAN CAN ECZANESİ,LEFKOŞA,"Dokuz Yavuz Konnolu Sokak No: 11 B, Lefkoşa",(0392) 224 06 66,Ecz. Can Kaptan
80,KERMİYA ECZANESİ,LEFKOŞA,Kemal Şemiler Cad. N0:24 Kiler Market Çaprazı Zeyphyr Café yolu Metehan Kermiya,(0392) 223 34 83,Ecz. Mehmet Dümenci
81,KEZİBAN TİLKİ ECZANESİ,LEFKOŞA,Atatürk Cad. Yalçın park karşısı Gönyeli,(0392) 223 12 10,Ecz. Keziban Tilki
82,KIVANÇ UFUK ECZANESİ,LEFKOŞA,"Salih Mecit Sokak Mustafa Tunçbilek Apt. No: 10/A, Lefkoşa",(0533) 830 90 50,Ecz. Kıvanç Ufuk
83,KIZILBAŞ ECZANESİ,LEFKOŞA,"Kemal Aksay Cad. No: 43/2, Taşkınköy, Lefkoşa",(0392) 225 32 59,Dr. Ecz. Hasan İsfendiyaroğlu
84,KUZEY ECZANESİ,LEFKOŞA,Raif Denktaş Cad.No:35/5 Göçmenköy Lefkoşa,(0392) 223 19 81,Ecz. Dilek Bulut
85,LA PHARMA ECZANESİ,LEFKOŞA,Şht.Mustafa Mehmet Sok. 71/C Göçmenköy / Lefkoşa (Adıgüzel lastik servisi yanı Erel ahşap karşısı),(0392) 223 14 14,Ecz. Arda Özyol
86,LADEN AKBATUR ECZANESİ,LEFKOŞA,Bakanlıklar yolu Başbakanlık önü Selçuklu Cad. N0:46 Adıgüzel Apt. Zemin Kat Lefkoşa,(0392) 227 25 75,Ecz. Laden Akbatur
87,LAİKA GÖKÇEKUŞ ECZANESİ,LEFKOŞA,Belediye Bulvarı No:3713 Yenikent Gönyeli,(0392) 224 09 88,Ecz. Laika Gökçekuş
88,MALEK ECZANESİ,LEFKOŞA,"Yzb. Tekin Yurdabak Cad. Marmara Dış Kapı No: 16 A, İstanbul Perde yanı Marmara Bölgesi, Lefkoşa",(0392) 227 92 70,Ecz. Yağmur Malek
89,MERVE BİLLUR ECZANESİ,LEFKOŞA,Atatürk Cad. Mustafa Billur Apt. No:142 Gönyeli,(0392) 223 43 50,Ecz. Merve Billur
90,MİEL ECZANESİ,LEFKOŞA,"Aydemet Mahallesi, Nazım Himet Caddedi No: 46/B Blok F2, Lefkoşa",(0542) 889 00 09,Ecz. Selma Soylukal
91,MUSTAFA GÜRMAN ECZANESİ,LEFKOŞA,"Kemal Şemiler Cad. No: 6/B, Kermiya, Lefkoşa",(0392) 330 08 30,Ecz. Mustafa Gürman
92,MUSTAFA PEHLİVAN ECZANESİ,LEFKOŞA,"Şht. Ecvet Yusuf Cad. No: 88, Kızılbaş, Lefkoşa",(0392) 228 71 07,Ecz. Mustafa Pehlivan
93,NECATİBEY ECZANESİ,LEFKOŞA,"Osman Paşa Cad. No: 9/7, Domino Pizza yanı ve Hangover karşısı, Köşlüçiftlik, Lefkoşa",(0392) 228 14 78,Ecz. Ayfer Uzman
94,NERGİS ECZANESİ,LEFKOŞA,Şht.Mustafa Mehmet Sok.No:3 Yöntem Laboratuvar ve Trafik Işıkları yanı Göçmenköy Lefkoşa,(0392) 225 50 75,Ecz. Nazife Taşker
95,NERİMAN KARATAÇ ECZANESİ,LEFKOŞA,"Mimar Mehmet Vahip Cad. No: 39/2, Hamitköy ışıkları üzeri, Dumlupınar yolu, Küçük Kaymaklı, Lefkoşa",(0392) 225 45 00,Ecz. Neriman Karataç
96,NİLCAN YAVUZCAN ECZANESİ,LEFKOŞA,"Gazetesci Hasan Tahsin Caddesi Erönene İş merkezi Dükkan No: 36/4, Ortaköy, Lefkoşa",(0392) 223 23 33,Ecz. Nilcan Emine Avcın
97,OBA 2 ECZANESİ,LEFKOŞA,"Dr. Necmettin Erbakan Cad. No: 49, Domuzcular Burnu yolu, Elite Hastanesi önü, Küçük Kaymaklı, Lefkoşa",(0392) 227 13 11,Ecz. Enver Alibaba
98,OBA ECZANESİ,LEFKOŞA,"Gaz. Hasan Tahsin Cad. No: 79/D, Lemar (Molto) yolu, China-Bazaar karşısı, Lefkoşa",(0392) 223 71 01,Ecz. Şerife Alibaba
99,ORHAN BERKE ECZANESİ,LEFKOŞA,"Öğretmenler Cad. Hacı Ali Sitesi 3, Belça süpermarket arkası, Ateş kuruyemişleri arasından içeri, İrsen Küçük ortaokulu arkası, Ortaköy, Lefkoşa",(0392) 223 31 21,Ecz. Orhan Berke Bilokçuoğu
100,ORTAKÖY ECZANESİ,LEFKOŞA,Şht.Gaz.Hasan Tahsn Cad. Lemar (Molto )Yolu - Severse Döner Karşısı Ortaköy Lefkoşa,(0392) 330 32 00,Ecz. Didem Can
101,ÖZÇALIŞKAN ECZANESİ,LEFKOŞA,"Kamelya Sok. Dış Kapı No: 3/B, Yenikent, Lefkoşa",(0533) 889 19 98,Ecz. İzge Özçalışkan
102,ÖZERÇAL ECZANESİ,LEFKOŞA,Raif Dentaş Cad.Siyah Kuğu 1 Binaları Dük.N0:15/E Göçmenköy Lefkoşa,(0392) 223 97 31,Ecz. Öznevir Erçal
103,ÖZNEM KILINÇKINI ECZANESİ,LEFKOŞA,Mehmet Akif Cad.Golden Tulip Hotel karşısı Dereboyu Lefkoşa,(0392) 227 11 10,Ecz. Öznem Kılınçkını
104,ÖZYOL ECZANESİ,LEFKOŞA,Şaziye Hacı Maltızlar Cad.No:2/ 4 Ortaköy Lefkoşa,(0392) 223 21 31,Ecz. Haldun Özyol
105,PAPATYAM ECZANESİ,LEFKOŞA,Şht.Gültekin Şengör Sok. Dük.No:3/4 little İtaly Pizza Karşısı Kumsal Lefkoşa,(0392) 228 23 30,Ecz. Hande Madi
106,PERVİN ECZANESİ,LEFKOŞA,"Haydar Aliyev Cad. Berber Tarlası Dük. No: 12/C, Hz. Ebubekir Cami Çaprazı, Türk Hava Yolları karşısı, Küçük Kaymaklı, Lefkoşa",(0392) 225 28 18,Ecz. Pervin Ayrancıoğlu
107,SABİHA BULDUK ECZANESİ,LEFKOŞA,"Şht. Ecvet Yusuf Cad. Bulduk Residence Apt. Dük. No: 3, Yenişehir (Orman Dairesi Yolu), Lefkoşa",(0392) 228 65 65,Ecz. Sabiha Bulduk
108,SAFİYE ÇAĞANSEL ECZANESİ,LEFKOŞA,"Şht. İsmail Beyoğlu Cad. No:52A, Eski Zipps Market yolu, Küçük Kaymaklı, Lefkoşa",(0392) 227 76 76,Uzm. Ecz. Safiye Çağansel
109,SAĞLIK 2 ECZANESİ,LEFKOŞA,Cengiz Topel Sok.Levent Apt.Blok.38 No:19 K.Çiftlik,(0392) 229 24 66,Ecz. Orhan Aktunç
110,SENAL ATAÇAĞ ECZANESİ,LEFKOŞA,Atatürk Cad. Şht.Zehra Mustafa Sk.No:5 Gönyeli,(0392) 223 19 97,Ecz. Senal Ataçağ
111,ŞERİFE ADEMOĞULLARI ECZANESİ,LEFKOŞA,"Şht.İsmail Dümenci Sok No: 2 C Lefkoşa Fenerium Karşısı, Eski İştah Restorant yanı Karaca's Corner Restorant ve Kamu Sen Karşısı Yenişehir Lefkoşa",(0392) 228 17 67,Ecz. Şerife Ademoğulları
112,SERKAN KERVAN ECZANESİ,LEFKOŞA,Hürriyet Cad. N0:11/ B Hamitköy Lefkoşa,(0392) 225 80 91,Ecz. Serkan Kervan
113,SERNA ECZANESİ,LEFKOŞA,"Belediye Bulvarı No: 2, Yenikent, Lefkoşa",(0392) 224 12 10,Ecz. Serna İzel Kaya
114,SEROL ECZANESİ,LEFKOŞA,Mustafa Ruso Cad. Muhtar Yusuf Galeria K.Kaymaklı,(0392) 227 20 64,Ecz. Safiye Taydaş
115,SERPİN ONAY ECZANESİ,LEFKOŞA,"Şht. Mustafa Ruso Cad. No: 84, Küçük Kaymaklı, Lefkoşa",(0392) 227 39 24,Ecz. Serpin Onay
116,SESİL ECZANESİ,LEFKOŞA,Bolu Sok. Blok 9 Küçük Kaymaklı Lefkoşa,(0392) 228 89 63,Ecz. Nurten Özünalp
117,SEV ECZANESİ,LEFKOŞA,"Kemal Şemiler Cad. Akçın Plaza No: 2, Zephyr Cafe yolu üzeri, Civisilli Gıda yanı, Metehan Kermiya, Lefkoşa",(0392) 223 44 14,Ecz. Seval Öztürk
118,SEVAL KAYMAK ECZANESİ,LEFKOŞA,Prof.Dr.Necmettin Erbakan Cad. N0: 41/A Lefkoşa,(0392) 227 96 19,Ecz. Seval Kaymak
119,SEVCAN ECZANESİ,LEFKOŞA,"Atatürk Cad. Emek Apt. Dükkan No: 3, Li̇masol Türk Koop Bankası karşısı, Yeni̇şehi̇r, Lefkoşa",(0392) 227 60 71,Ecz. Sevcan Güvenir
120,SEVGİ KARABEKİR ECZANESİ,LEFKOŞA,"20 Temmuz Sokak Suphi Hüdaoğlu Apt. No: 25 Kapı No: 1, Yenikent - Gönyeli, Lefkoşa",(0533) 820 72 84,Ecz. Sevgi Dudu Karabekir
121,SEVGİ KIRBOĞA ECZANESİ,LEFKOŞA,"Şht. Ecvet Yusuf Cad. No: 33/C, Öztekiner Apt., Yenişehir, Lefkoşa",(0392) 228 05 08,Ecz. Sevgi Kırboğa
122,SEYRANTEPE ECZANESİ,LEFKOŞA,Atatürk Cad. 46 A Hamitköy Lefkoşa,(0392) 225 57 28,Ecz. Ferdiye Dorak
123,SEZER ECZANESİ,LEFKOŞA,79/B Gz.Hasan Tahsin Cad.Kermiya Ortaköy Kermiya,(0392) 223 70 88,Ecz. Turan Ceyda
124,ŞİRİN BOLKAN ECZANESİ,LEFKOŞA,Atatürk Cad. Ersalıcı Atp. Hamitköy Lefkoşa,(0392) 225 40 20,Ecz. Şirin Bolkan
125,SONUÇ ECZANESİ,LEFKOŞA,Atatürk Cad. No: 7/ B Yenişehir Lefkoşa,(0392) 227 32 70,Ecz. Ergin Sonuç
126,SÖZÜÖZ ECZANESİ,LEFKOŞA,"Şht. Mehmet Kemal Sok., Akasya Apt., Lemar arkası, Şht. Doğan Ahmet İlkokulu sırası, Küçük Kaymaklı, Lefkoşa",(0392) 229 33 00,Ecz. Umut Sözüöz
127,TÖRENAĞA ECZANESİ,LEFKOŞA,"Gaz. Kemal Aşık Cad. No: 60, Küçük Kaymaklı, Lefkoşa",(0392) 228 10 08,Ecz. Aygül Aygın
128,TUĞCAN ECZANESİ,LEFKOŞA,İsmail Beyoğlu Cad.Atılgan Plaza Dük.No:8 K.Kaymaklı,(0392) 229 29 86,Ecz. Tuğcan Burukkan Akçın
129,TUNA ECZANESİ,LEFKOŞA,Şht.Ecvet Yusuf Cad. HacıBulgur Apt.No:16 B Deniz Plaza ve Mochachina yanı Yenişehir,(0392) 227 78 74,Ecz. Sunay Tuna
130,TÜRKAN ŞENTİP ECZANESİ,LEFKOŞA,Belediye Bulvarı N0:75/C Damdelen Petrol karşısı Yenikent Gönyeli,(0392) 223 93 40,Ecz. Türkan Şentip
131,ÜLKER POZAN ECZANESİ,LEFKOŞA,Şht.Gaz.Hasan Tahsin Cad. 28/2 Ortaköy Lefkoşa Lemar Yolu,(0392) 223 51 80,Ecz. Ülker Pozan
132,UMUT ÖKSÜZ ECZANESİ,LEFKOŞA,"Şht. Mustafa Ruso Cad. No:17, Küçük Kaymaklı Macro Süperarket karşısı(Eski Lemar Süpermarket), Aras Kargo yanı, Lefkoşa",(0392) 444 86 88,Ecz. Umut Öksüz
133,VAİZ ECZANESİ,LEFKOŞA,"Atatürk Caddesi No: 84/C, Yenişehir, Lefkoşa",(0392) 228 09 90,Ecz. Derviş Doğa Vaiz
134,YAPRAK POLAT ECZANESİ,LEFKOŞA,"Zafer Cad. 34A Haspolat, Lefkoşa",(0533) 879 93 23,Ecz. Yaprak Polat
135,YAZMAN ECZANESİ,LEFKOŞA,Devlet Hastanesi Karşısı Akay Optik Plaza Ortaköy Lefkoşa,(0392) 223 21 21,Ecz. Necat Yazman
136,YELİM ECZANESİ,LEFKOŞA,Gültekin Şengör SOK.AKÜÇ Apt.Kumsal Lefkoşa,(0392) 228 78 66,Ecz. Tahir Kıbcak
137,YENİKENT ECZANESİ,LEFKOŞA,Belediye Bulvarı Yenikent Gönyeli Zorlu Plaza karşısı,(0392) 223 93 78,Ecz. Düriye Musioğlu
138,YENİŞEHİR ECZANESİ,LEFKOŞA,"Hüseyin İrfan Sok. Cankan Apt. No:1 Dük. 4, Lefkoşa Türk Belediyesi arkası, Yenişehir, Lefkoşa",(0392) 227 23 63,Ecz. Ahenk Bilir
139,YEŞİM ECZANESİ,LEFKOŞA,"Şht. Kemal Ünal Cad. Eser Apt. B Blok, Metropol Süpermarket karşısı, Taşkınköy, Lefkoşa",(0392) 225 69 18,Ecz. Yeşim Fidanboylu
140,YONCA HATİPOĞLU ECZANESİ,LEFKOŞA,Ecvet Yusuf Cad. Miniloy Dük.No:2 Kızılbaş Lefkoşa,(0392) 228 06 06,Ecz. Yonca Hatipoğlu
141,YUSUF TANDOĞAN ECZANESİ (LEFKOŞA),LEFKOŞA,"Mehmet Akif Cad. HacıAli Apt., Gloria Jeans ara sokağı, Toros beyaz eşya yanı, Dereboyu, Lefkoşa",(0392) 227 23 50,Ecz. Gizem Karagözlü
142,ZEHRA ECZANESİ,LEFKOŞA,"Şht. Kemal Ünal Cad., No: 11, Metropol Süpermarket yolu, Mebel Elektronik yanı, Taşkınköy, Lefkoşa",(0392) 225 59 47,Ecz. Şerife Çağansoy
143,ACARKAN ECZANESİ,GİRNE,"Kordonboyu No: 38, Atatürk Heykeli, Girne",(0392) 816 00 08,Ecz. Erol Acarkan
144,ADAŞEHİR ECZANESİ,GİRNE,"Ecevit Caddesi, Yeni Belediye Binası yanı, Avrasya Gold Apartmanı, (Arçelik yanı, Yok Yoktur Market karşısı), Girne",(0392) 815 01 88,Uzm. Ecz. Fatma Yücelen
145,AHMET ÇAĞER ECZANESİ,GİRNE,Ankara Cad. N0:50/ 2 A Alsancak Girne,(0392) 821 34 34,Ecz. Ahmet Çağer
146,ALENBAY ECZANESİ,GİRNE,"Kurtuluş Cad. No: 53/1, Bellapais yolu, Ovis Coffees karşısı, Bomond Bar yanı Girne",(0533) 886 12 24,Ecz. Peral Bayramoğulları
147,ALEV FARUK ECZANESİ,GİRNE,"Şht. Sonay Özdayı Sok. No: 8, Boğazköy, Girne",(0392) 234 65 96,Ecz. Mustafa Faruk
148,ARDA ÇELİK ECZANESİ,GİRNE,Bellapais Yolu Zafer Cad. Bedel Plaza N0:4-5 Girne,(0392) 815 20 69,Ecz. Pervin Çelik
149,AŞAR ECZANESİ,GİRNE,"Mustafa Çağatay Cad. Yetkili İş Merkezi No:32, Mahkemeler yanı, Garanti Bankası karşısı, Girne",(0392) 815 70 75,Ecz. Aşar Ustaoğlu
150,AŞAR KARAOĞLANOĞLU ECZANESİ,GİRNE,"Karaoğlanoğlu cad. No:3 Storemax yanı, Girne",(0392) 822 38 85,Ecz. Duygu Ustaoğlu
151,ASRIN ÜMİT ECZANESİ,GİRNE,"Karaoğlanoğlu Cad. Yayla New Castle Plaza No: 2, Deniz Kızı Hotel karşısı, Karaoğlanoğlu, Girne",(0533) 839 19 60,Ecz. Seyedeh Masha Hojjat Abi
152,AYDIN ECZANESİ,GİRNE,Karaoğlanoğlu Cad. Beyaz Plaza No:3 Alsancak Girne,(0392) 821 33 61,Ecz. Hatice Özalp
153,AYDIN LIFE ECZANESİ,GİRNE,Kurtuluş Cad. Minimal Plaza N0:6 Doğanköy (Bellapais yolu Uncle Sam's Cafe yanı),(0533) 888 56 66,Ecz. Nilhan Uzman
154,AYGÜL AYGIN ECZANESİ,GİRNE,Semih Sancar Cad. Nurel 21 Bee Tower Apt. Dük.No:2 Hürdeniz Market karşı Çaprazı,(0533) 830 00 49,Ecz. Aygül Aygın
155,AYLAND ECZANESİ,GİRNE,"Karaoğlanoğlu Cad. NDI HED BLUE No: 2, Girne",(0533) 866 49 42,Ecz. Shideh Rozhani
156,AYŞEN ALTAN ECZANESİ,GİRNE,Mareşal Fevzi Çakmak Cad. N0:121/1 Lapta Girne,(0533) 858 52 08,Ecz. Ayşen Altan
157,BARIŞ ECZANESİ,GİRNE,Şht.İbrahim Nidai Cad. N0:55 Lapta,(0392) 821 84 10,Ecz. Ali Öner
158,BAŞAK ECZANESİ,GİRNE,Ziya Rızkı Cad. No:31 Ocak Klubü karşısı Barbaraslor Market yanı Girne,(0392) 815 36 20,Ecz. Erdoğan Başak
159,BEDEOĞLU ECZANESİ,GİRNE,Beşparmaklar Cad. N0:79 Dük.7 Çatalköy Girne,(0392) 824 47 94,Ecz. Evren Bedeoğlu
160,BUĞÇE ECZANESİ,GİRNE,"Templos Tower 2 Dük. Zeytinlik yolu, Nusmar Market yanı, Girne",(0392) 815 00 32,Ecz. Buğçe Yürüker
161,CENGİZ SOLMAZ ECZANESİ,GİRNE,"Naci Talat Cad. Zeki Keçeli Apt. No:1, Defacto ve Kığılı Mağazaları yanı, Girne",(0533) 844 03 72,Ecz. Cengiz Solmaz
162,DAMLA ÖNDER ECZANESİ,GİRNE,"Laden Sok. No: 2A, Çamlıbel, Girne",(0533) 877 80 00,Ecz. Damla Önder
163,DEFNE ECZANESİ,GİRNE,Atatürk Cad. No:20 Girne,(0392) 815 35 16,Ecz. Nilgün Hekimoğlu
164,DİLARA ÖZHAMİT ECZANESİ,GİRNE,"Mete Adanır Cad. Yukarı Girne No:1 1/A, Kozan Döviz Yanı, Girne",(0392) 815 11 88,Ecz. Dilara Özhamit
165,DÜNYA ECZANESİ,GİRNE,"Salih Miroğlu Cad. Ataker İş Hanı No:1, Nusmar sokağı - Şokmar, Zeytinlik yolu, Girne",(0392) 815 00 09,Ecz. Canan Çomunoğlu
166,EDA ATAÇAĞ ECZANESİ,GİRNE,Dr.Salih Miroğlu Cad. 45/2 Zeytinlik Yolu Şokmar Süper Market Karşısı Girne,(0548) 881 18 11,Ecz. Eda Ataçağ
167,EMİN ECZANESİ,GİRNE,Karaoğlanoğlu Cad. Hasem İşhanı No:1 Alsancak Girne,(0533) 870 19 46,Ecz. Şerife Eminağa
168,EMİNAĞA ECZANESİ,GİRNE,Ziya Rızkı Cad. No:10 Girne,(0392) 815 22 48,Ecz. Ahmet Yöney
169,ENVER POLİLİ ECZANESİ,GİRNE,"Şht. Kazım Ali Sokak No: 2, Değirmentaşı Mahallesi Ertuğ Kader Apt. No: 2 ,Yukarı Girne",(0533) 860 63 96,Ecz. Enver Polili
170,ERDOĞAN ÖZİKİZ ECZANESİ,GİRNE,"Karaoğlanoğlu Cad. Dükkan No: 160/3, Starlux Sinema yanı, Girne",(0548) 870 84 42,Ecz. Ecem Tansoy
171,ESAT ÇELEBİ ECZANESİ,GİRNE,"Dr. Fazıl Küçük Cad. No: 47, Dikmen, Girne",(0392) 237 27 78,Ecz. Esat Çelebi
172,FATMA SARAÇ ECZANESİ,GİRNE,"20 Temmuz Sok. No: 2 Esentepe, Girne",(0392) 823 63 84,Ecz. Fatma Saraç
173,GİRNE ECZANESİ,GİRNE,Işil Sok. Bayramoğlu Apt.D/3 Girne,(0392) 815 14 47,Ecz. Güzin Çağdan
174,GÜNAY VARIŞ ECZANESİ,GİRNE,Uğur Mumcu Cad. Bekir Paşa İşMerkezi N0:1 Karakum,(0392) 815 25 85,Ecz. Günay Arsoy Varış
175,GÜNDAL ECZANESİ,GİRNE,Altınör Apt. A Blok Dük.2 Uğur Mumcu Bulvarı Girne Karakum ( Molto Süpermarket karşısı ),(0392) 816 05 43,Ecz. Ayşen Günsel Mehmetçik
176,GÜVEN ECZANESİ,GİRNE,Salih Miroğlu Cad. Ersoy 6 Apt. Yukarı Girne,(0392) 815 24 09,Ecz. Didem Güven
177,İBRAHİM BARDAK ECZANESİ,GİRNE,"Sakarya Sok. Yukarı Girne Ayşan Keskinel Apt. No:5A, Girne",(0533) 851 76 08,Ecz. İbrahim Bardak
178,İLGEN ECZANESİ,GİRNE,"Bedrettin Demirel Cad. Özyalçın 156 Apt. Yaprak Tantuni çaprazı, Suvari mağazası yanı, Girne",(0392) 815 81 18,Ecz. İlgen Görgüner
179,İPEK YÖNEY ECZANESİ,GİRNE,Karaoğlanoğlu Cad. Faraçoğlu İşhanı No: 320 Karaoğlanoğlu Girne,(0533) 862 76 56,Ecz. İpek Yöney
180,KANDİL ECZANESİ,GİRNE,Karaoğlanoğlu Cad. E 48 Chichen Planet karşısı GAÜ Işıkları yanı Karaoğlanoğlu,(0392) 822 38 42,Ecz. Kadriye Kandil
181,KARAOĞLANOĞLU ECZANESİ,GİRNE,"Karaoğlanoğlu Caddesi Özaltın Dükkanları No: 2, Girne (Zeytin yağı fabrikasını geçince solda, petshop yanı)",(0533) 875 39 93,Ecz. Mürüde Musioğlu
182,KARPUZOĞLU ECZANESİ,GİRNE,Uğur Mumcu Cad. Eren İş Hanı N0:1 Karakum Girne,(0392) 816 12 30,Ecz. İbrahim Karpuzoğlu
183,KÜÇÜK ECZANESİ,GİRNE,Canbulat Sok.No:5/C Girne,(0392) 815 36 26,Ecz. Yusuf Küçük
184,MARYAM ECZANESİ,GİRNE,"Ankara Cad. No: 1, Lotus Park Sitesi A Blok, Alsancak, Girne",(0533) 842 36 37,Ecz. Maryam Mohammed
185,MEHMET GAZİKÖYLÜ ECZANESİ,GİRNE,Uğur Mumcu Cad. Karakum Girne,(0392) 816 01 23,Ecz. Mehmet Gaziköylü
186,MEHMET KAMİLOĞLU ECZANESİ,GİRNE,"Mustafa Çağatay Cad. No: 41/C, Dr. Akçiçek Hastanesi yolu, Girne",(0533) 887 44 88,Ecz. Mehmet Kamiloğlu
187,MELİS UZUN ECZANESİ,GİRNE,"Işıl Sokak, Uzun Apt. No: 4, Kamiloğlu Hastanesi yanı, Girne",(0533) 862 11 72,Ecz. Melis Uzun
188,MELİZ 2 ECZANESİ,GİRNE,Beyoğlu Sok. No:11 Ordu Pazarı karşısı 4 C Girne,(0533) 862 28 82,Ecz. Melis Emek
189,MUCİZEM ECZANESİ,GİRNE,Naci Talat Cad. N0:26 A Bücürük yanı Ship İnn Otel karşısı Girne,(0548) 851 11 50,Ecz. Çağın Eseri
190,NAZIM VARIŞ ECZANESİ,GİRNE,Karaoğlanoğlu Cad. Yayla Mah. No:149 Alsancak Girne,(0392) 821 30 88,Ecz. Nazım Varış
191,NEJLA ERÇAL ECZANESİ,GİRNE,Üniversite Yolu Sok.N0:63//B Karaoğlanoğlu Girne Amerikan Üniversitesi yanı Girne,(0392) 822 32 02,Ecz. Nejla Erçal
192,NURÇAĞ ECZANESİ,GİRNE,"Şht. Dursun Özsaraç Sok. No: 6/2, Eski Passport restorant sokağı, Girne",(0392) 815 10 25,Ecz. Nurçağ Madi
193,ÖMRÜM AKI ECZANESİ,GİRNE,"İstiklal Cad. Dük. No:1, Esentepe, Girne",(0533) 882 32 39,Ecz. Ömrüm Akı
194,ÖMRÜM ECZANESİ,GİRNE,Karaoğlanoğlu Cad. No:256 Girne,(0392) 822 22 87,Ecz. Sergül Akı
195,ÖNAL AKTOLGA ECZANESİ,GİRNE,Karaoğlanoğlu Cad. N0:33 Girne,(0392) 822 41 42,Ecz. Önal Akotlga
196,ÖNCEL MAHMUTOĞLU ECZANESİ,GİRNE,Ecevit Cad. Fuzuli Sok.Öncel Çerkez Apt.Dük. 1 Girne,(0392) 815 08 50,Ecz. Öncel Mahmutoğlu
197,ORÇUN ÖZKASAP ECZANESİ,GİRNE,"Karaoğlanoğlu Caddesi Zeytinlik Kesimi Atilla Çankaya Apt. 92 B No: 4, Karaoğlanoğlu, Girne",(0533) 870 21 22,Ecz. Orçun Özkasap
198,ÖZENİR ECZANESİ,GİRNE,"Mareşal Fevzi Çakmak Cad. Kocatepe No: 69, Manolya hotel karşısı, Lapta, Girne",(0542) 876 06 60,Ecz. Emine Türk
199,ÖZGE ÖZÇINAR ECZANESİ,GİRNE,Mete Adanır Cad. Cyprus Pools Apt. N0:28 C Girne,(0392) 815 90 90,Ecz. Özge Özçınar
200,PINAR KEKLİK ECZANESİ,GİRNE,"Karaoğlanoğlu Cad. 198/A, Teknogold yanı, Alsancak, Girne",(0533) 857 54 94,Ecz. Pınar Keklik
201,POSTACIOĞLU ECZANESİ,GİRNE,"Mustafa Çağatay Cad. Postacıoğlu Apt. 1, Girne",(0392) 815 11 00,Ecz. Dilek Postacıoğlu
202,RIZKI 2 ECZANESİ,GİRNE,Mülk Plaza No:11 Çatalköy Girne,(0392) 824 56 06,Ecz. Mediha Keleşoğlu
203,RIZKI ECZANESİ,GİRNE,NaciTalat Cad. N0:3 Foto Berkenat yanı Girne,(0392) 815 34 96,Ecz. Zehra Keleşoğlu
204,SALİM KARABEKİR ECZANESİ,GİRNE,"Karaoğlanoğlu Cad., Yayla Mahallesi No: 213/B, Sky Plaza Apt. Dükkan No: 2, Alsancak, Girne",(0533) 845 98 36,Ecz. Salim Karabekir
205,SELİN ESER ECZANESİ,GİRNE,Dr.Fazıl Küçük Cad. Yeni Liman Yolu High Life Tower No:23 B Girne,(0392) 815 06 66,Ecz. Selin Eser
206,SERTAÇ ECZANESİ,GİRNE,"Osman Örek Caddesi Öğretmen evi karşısı, Bektaş gıda pazarı ilerisi Hocanın Apt.3/B Girne",(0392) 815 90 67,Ecz. Kıvanç İlter
207,SETENAY BENGİSU ECZANESİ,GİRNE,Bellapais Trafik Işıkları Yolu Ardıç Yanı Doğanköy -Girne,(0392) 816 00 82,Ecz. Setenay Bengisu
208,SEVİN ÇAĞAY ECZANESİ,GİRNE,"Ecevit Cad. No: 67/B, Yeni Girne Belediyesi karşısı, Yok Yoktur Market yanı, Girne",(0392) 815 20 25,Ecz. Sevin Çağay
209,SHİMA ECZANESİ,GİRNE,"Karaoğlanoğlu Cad. No: 62, Terkan Plaza No: 4, Oğuz Veli Ortaokulu Karşı Çaprazı, TAYF (Marshall) ve Magarına Bulli Restorant Sırası, Karaoğlanoğlu, Girne.",(0548) 822 02 72,Ecz. Shima Abdihagh Gezer
210,ŞİFALI ECZANESİ,GİRNE,"Karaoğlanoğlu Cad. Yayla Mah. Dük. No: 5, Alsancak, Girne",(0533) 846 33 30,Ecz. Ayşe Türk
211,SOYERLER 1 ECZANESİ,GİRNE,Naci Talat Caddesi Şapka Cafe Yanı Aşağı Girne Atlantıc Avenue B Blok Dış Kapı No: 42/ C,(0533) 833 07 17,Ecz. Selçuk Soyer
212,SOYERLER ECZANESİ,GİRNE,"Karaoğlanoğlu Cad. Side Plaza No: 105, Dük. No: 2, İş Bankası yanı, Alsancak, Girne",(0533) 830 07 17,Ecz. Göksel Soyer
213,ŞULE YILDIZDOĞAN ECZANESİ,GİRNE,Salih Miroğlu Cad. Alier Plaza 22 /B Girne,(0392) 816 12 13,Ecz. Şule Yıldızdoğan
214,TÖREN 2 ECZANESİ,GİRNE,Vakıflar Çarşısı A Blok No:1 Girne,(0392) 815 17 90,Ecz. Ahmet Eminağa
215,TÖREN ECZANESİ,GİRNE,Ziya Rızkı Cad. Yusuf Ziya Apt. No:262/B Girne,(0392) 815 89 79,Ecz. Ayça Eminağa İpekdal
216,TÖRENSEL ECZANESİ,GİRNE,Beşparmaklar Cad.Mah Ayhan Plaza Dükkan No:3 Çatalköy,(0392) 824 57 13,Ecz. Doğan Başak
217,TURGAY PARALI ECZANESİ,GİRNE,"Semih Sancar Carrington 44 Apt., Sushico yanı - Rota Reklam bitişiği, Girne",(0533) 837 61 26,Ecz. Turgay Paralı
218,VURAL ECZANESİ,GİRNE,Dr.Fazil Küçük Cad. N0:35/2 Dikmen Girne Dikmen,(0392) 237 30 19,Ecz. Kemal Vural
219,YUSUF TANDOĞAN ECZANESİ (GİRNE),GİRNE,"Beşparmaklar Cad. Ufuktan 1 Apt. Dük. No: 4, Çatalköy, Girne",(0548) 865 34 34,Ecz. Asrem Karagözlü
220,ZEHRA KELEBEK ECZANESİ,GİRNE,Mareşal Fevzi Çakmak Cad. Demirege Apt. 169 A Lapta Girne,(0392) 821 38 88,Ecz. Zehra Kelebek
221,ZİYA SENCER ECZANESİ,GİRNE,"Mete Adanır Cad. No: 2, Magic Tower Apt. Sulu Çember karşısı, Girne",(0533) 826 51 91,Ecz. Ziya Sencer
222,ADA ECZANESİ,GAZİMAĞUSA,Salamis yolu Sakarya Dük. No:3 Mağusa,(0392) 365 31 30,Ecz. Eylem Körceğez
223,ARAS ÖNCÜ ECZANESİ,GAZİMAĞUSA,"15 Ağustos Bulvarı No: 46, İlama Market karşısı, Çanakkale, Gazimağusa",(0392) 366 29 99,Ecz. Aras Öncü
224,ARKAN ADIŞANLI ECZANESİ,GAZİMAĞUSA,"Yalı Mah. Metran Plaza No: 2, Tatlısu, Gazimağusa",(0548) 853 15 53,Ecz. Arkan Adışanlı
225,ASLI EREN ECZANESİ,GAZİMAĞUSA,Ziya Gökalp Cad.Eski Belça Süpermarket Yolu Bitirim Ayakkabı yanı GaziMağusa,(0392) 366 47 47,Ecz. Aslı Eren
226,ASYA TEKBIYIK ECZANESİ,GAZİMAĞUSA,İsmet İnönü Bulvarı Hasipoğlu Residance B Blok N0:3 Şık Prenses yanı Çelikkaya Klinik Altı Gazimağusa,(0392) 365 13 38,Ecz. Asya Tekbıyık
227,AYBENK ECZANESİ,GAZİMAĞUSA,"Gülseren yolu Reflex Plaza 5, dükkan 4, Karakol bölgesi̇, Lancet laboratuvar, eski̇ Pınar market ve Puzzle travel yanı, Gazimağusa",(0533) 870 37 88,Ecz. Abdullah Aybenk
228,AYŞE EMİROĞLULARI ECZANESİ,GAZİMAĞUSA,Yenikent Bulvarı İstiklal Cad. N0:39 Yeniboğaziçi Mağusa,(0533) 841 98 13,Ecz. Hasibe Emiroğluları
229,AYŞE ÖZBEYCAN ECZANESİ,GAZİMAĞUSA,Topcu Bulvarı GaziMağusa Deniz Plaza ve Mr.Pound karşısı GaziMağusa,(0392) 365 68 38,Ecz. Ayşe Özbeycan
230,AYŞEM ÇİL ECZANESİ,GAZİMAĞUSA,"15 Ağustos Namık Kemal Bulvarı, Halken Tower Apt. No: 5, Güder Kasap yolu üzeri, Dr. Şerife Zorba Kliniği yanı, Gazimağusa",(0392) 366 20 26,Ecz. Ayşem Çil
231,BAHAR ECZANESİ,GAZİMAĞUSA,"İsmet İnönü Bulvarı No: 45, Ateş Kuruyemişleri yanı, Gazimağusa",(0392) 365 51 26,Ecz. Bahar Kilim
232,BARIŞER ECZANESİ,GAZİMAĞUSA,"Mustafa Kemal Bulvarı, Newlife Apt. No: 1, Yaşam Hastanesi yanı, Gazimağusa",(0392) 365 60 40,Ecz. Ali Barışer
233,BUĞÇE BAYRAM ECZANESİ,GAZİMAĞUSA,Döveç Apt. No:8 Mustafa Kemal Bulvarı Uluçam Yolu Mağusa,(0392) 365 25 25,Ecz. Buğçe Bayram
234,BURCU GÖKALP ECZANESİ,GAZİMAĞUSA,Kaliland Bölgesi Halil Hamza Yolu Ece Apt.Dük.3 GaziMağusa,(0392) 365 69 39,Ecz. Burcu Gökalp
235,ÇAĞKAN AKSOY ECZANESİ,GAZİMAĞUSA,N0:28 15 Ağustos Bulvarı Larnaka Yolu GaziMağusa,(0392) 366 95 55,Ecz. Çağkan Aksoy
236,ÇAĞLAN ECZANESİ,GAZİMAĞUSA,15 Ağustos Bulvarı N0:34 P.K: 194 Mağusa,(0392) 366 64 47,Ecz. Behiye Zorlu
237,CEREN ECZANESİ,GAZİMAĞUSA,Papatya Apt.No:2 Larnaka Yolu Anıt Çemberi yanı,(0392) 366 33 74,Ecz. Aliye Kürüm
238,ÇİSE SEZEREL ECZANESİ,GAZİMAĞUSA,Ziya Gökalp Cad. N0:34 Belça yolu Göçmen Petrol istasyonu karşısı Mağusa,(0392) 366 39 15,Ecz. Çise Sezerel
239,ÇİSEM ECZANESİ,GAZİMAĞUSA,Halil Hamza Yolu Kaliland Bölgesi Alasya park sitesi karşısı - Gazimağusa,(0392) 365 40 04,Ecz. Çisem Tacel
240,DEMET ECZANESİ,GAZİMAĞUSA,New Castle No:1 Bayraktar yolu Lemar Yanı Mağusa,(0392) 366 33 50,Ecz. Demet İlerici
241,ECE ECZANESİ,GAZİMAĞUSA,"Mustafa Kemal Bulvarı, Özel Yaşam Hastanesi yanı, Gazimağusa",(0392) 366 38 46,Ecz. Zakire Kaleli
242,EMİR ECZANESİ,GAZİMAĞUSA,Gülseren Yolu Şafak Pazarlama No:2/ A Karakol Bölgesi Mağusa,(0392) 365 54 54,Ecz. Emir Akşahoğlu
243,EREL ECZANESİ,GAZİMAĞUSA,Salamis yolu Salamis Hotel Karşısı,(0392) 864 93 85,Ecz. Nazife Sağlamer
244,ERGİN ECZANESİ,GAZİMAĞUSA,Mağusa Tıp Merkezi Hastanesi Acil Servis Karşısı Mağusa,(0392) 365 47 35,Ecz. Ergin İlktaç
245,ERTUĞ EMİN ECZANESİ,GAZİMAĞUSA,"Ismet İnönü Bulvarı Reflex Apt. No:104, Mardo ve Dağlı Sigorta yanı, Sakarya, Gazimağusa",(0392) 365 60 60,Ecz. Ertuğ Emin
246,FAYDALI ECZANESİ,GAZİMAĞUSA,Devlet Hastanesi Yolu Zabitler Petrol 100 m öncesi DAÜ Bankamatik yanı,(0392) 365 69 22,Ecz. Olcay Faydalı
247,GİZEM KARAHASAN ECZANESİ,GAZİMAĞUSA,"Yeni Hastane yolu, Karting yanı, Tuzla, Gazimağusa",(0392) 364 84 94,Ecz. Gizem Karahasan
248,GİZEMGÜL ECZANESİ,GAZİMAĞUSA,Yeniknet Mah.Kadife Sok Yeni Boğaziçi,(0392) 378 98 98,Ecz. Gizemgül Beşergil
249,GÖKCEN İLKTAÇ ECZANESİ,GAZİMAĞUSA,"İsmet İnönü Bulvarı No: 145, Güder Apt. No: 5, Birleşmiş Milletler karşısı, Gazimağusa",(0392) 365 68 20,Ecz. Parandis İlktaç
250,GÜLFİDAN ECZANESİ,GAZİMAĞUSA,Istiklal Cad. N0:195/2 Yeniboğaziçi,(0392) 378 94 14,Ecz. Gülfidan Köseoğlu
251,GÜLOĞLU ECZANESİ,GAZİMAĞUSA,"Mustafa Kemal Bulvarı Notherland Alasya Park sitesi, Eski Kaliland karşısı Dük. 4, Mağusa",(0392) 365 38 68,Ecz. Fisun Güloğlu Beşergil
252,GÜZER ECZANESİ,GAZİMAĞUSA,"City Mall AVM yanı (arka yol), Dersaneler yolu, Golden Car Wash çaprazı, Çanakkale, Gazimağusa",(0533) 874 03 74,Ecz. Bahar Güzer
253,HACER BALIKÇI ECZANESİ,GAZİMAĞUSA,Mustafa Kemal Bulvarı. Döveç Elite Life Apt.:3. Mağusa,(0392) 365 55 18,Ecz. Hacer Balıkçı
254,HAKAN ECZANESİ,GAZİMAĞUSA,Kocatepe Sok.N0:1 GaziMağusa,(0392) 366 27 13,Ecz. Nurten Göksan
255,HALİL HAMZALAR ECZANESİ,GAZİMAĞUSA,Halil Hamza Yolu Ece Apt. Dükkan3 Zizzi Pizza & Dünya Oto Galeri arası / Kaliland Bölgesi Gazimağusa,(0392) 365 55 94,Ecz. Halil Hamzalar
256,HALK ECZANESİ,GAZİMAĞUSA,"Namık Kemal Meydanı Kışla Yolu 2-D, Suriçi, Gazimağusa",(0392) 366 53 33,Ecz. Ayten Bayram
257,HALKIN ECZANESİ,GAZİMAĞUSA,"2. Uluçam Yolu Erbatu Apt. Evleri B Blok, Dük.1, Pakduş ve Çocuk Dünyası yolu, Noterland Primer Park karşısı, Sakarya, Gazimağusa",(0392) 365 01 12,Ecz. Esra Halkın
258,HANDE BESMEL ECZANESİ,GAZİMAĞUSA,Gülseren Yolu Cahit Sıtkı Tarancı Sokak Şafak Plaza No:10 Karakol Bölgesi Mağusa,(0392) 365 34 50,Ecz. Hande Besmel
259,HİÇKORKMAZ ECZANESİ,GAZİMAĞUSA,"Tünay İrfanoğlu sok. Northerland Premier, Dış Kapı No: 8, Sakarya, Gazimağusa",(0533) 832 24 03,Ecz. Laika Hiçkorkmaz
260,İÇTEN ECZANESİ,GAZİMAĞUSA,"Eşref Bitlis Cad. İsmet Erel Apt. Dukkan No: 1 (Tıp Merkezi Girişi), Gazimağusa",(0392) 365 22 00,Ecz. Hüsniye Öztoprak
261,İNEM MİMAR ECZANESİ,GAZİMAĞUSA,"Hasan Barbaçolli Sok. Uzun Apt. 11, Yeni Lemar akra yolu - Burçin Bestamil kuaför karşısı, Sakarya, Gazimağusa",(0548) 842 27 95,Ecz. İnem Mimar
262,KAĞAN KANDEMİR ECZANESİ,GAZİMAĞUSA,"Samanyolu Sokak Çanakkale Ayten 2 Apt. No: 3, Gazimağusa",(0533) 881 66 26,Ecz. Kağan Kandemir
263,KARAKOL ECZANESİ,GAZİMAĞUSA,Gülseren yolu Nilgün uzun Apt.N0:2 Karakol Mağusa,(0392) 365 65 19,Ecz. Sevtap Zeki
264,KUNTER GÜVEN ECZANESİ,GAZİMAĞUSA,"Karakız Sokak No: 2, Baykal Kunter Güven Hastanesi Karşısı, Gazimağusa",(0392) 366 19 09,Ecz. Ahmet Kunter
265,LARNAKA YOLU ECZANESİ,GAZİMAĞUSA,"15 Ağustos Bulvarı Dük. 2, No:136/B, 2,5 mil yolu, Çanakkale, Gazimağusa",(0533) 860 59 65,Ecz. Sibel Kösedağ
266,MEHMET ARTER ECZANESİ,GAZİMAĞUSA,"15 Ağustos Bulvarı Piyale Paşa Mah. İlhan Apt. No:1, Larnaka Yolu, Gazimağusa",(0392) 366 00 02,Ecz. Mehmet Arter
267,MEHMETALİ BEYAZ ECZANESİ,GAZİMAĞUSA,"Eşref Bitlis Cad., Topcu Bulvarı, Beyzade Apt., No: 3, Garanti Bankası Karşısı Polis Müdürlüğü önü Gazimağusa",(0392) 365 06 50,Ecz. Mehmetali Beyaz
268,MELİKE BARBAROS ECZANESİ,GAZİMAĞUSA,"Şht.İbrahim Hasan Cad.City Mall yolu üzeri (Tözün Kuru Temizleme'den, City Mall istikametine giderken solda,Akol İnş Şirketi yanı)",(0392) 365 42 40,Ecz. Melike Barbaros
269,MEVA ECZANESİ,GAZİMAĞUSA,"15A Ordu Sok. Açık Pazar Karşısı, Mağusa",(0548) 837 23 23,Ecz. Meva Arter
270,NASİM ECZANESİ,GAZİMAĞUSA,"Colins yanında, Ozkoç Plaza, Calıforıan Restorant karşısında, Salamis Yolu Mağusa",(0392) 365 03 40,Ecz. Faysal Zeki
271,NİLHAN SOYSAL ECZANESİ,GAZİMAĞUSA,"Silahlı Kuvvetler Cad. Pertur Apt. No: 29A, The Europen Hotel (Sema) - Adaş Bebe karşısı, Gazimağusa",(0392) 366 03 53,Ecz. Nilhan Soysal
272,ÖREN ECZANESİ,GAZİMAĞUSA,"Cengizhan yolu No: 91. Maraş bölgesi, Gazimağusa (Öztemur hırdavat ve Fidan marketin karşısı. Kombos meydanı)",(0392) 366 34 57,Ecz. Cem Ören
273,OSMANKAN ECZANESİ,GAZİMAĞUSA,Hüseyin Durmuş Sok. 50/ A Dük.No:2 Larnaka Yolu,(0392) 366 92 97,Ecz. Emre Osmankan
274,ÖZAY ECZANESİ,GAZİMAĞUSA,Altay Sok. Baykal Mağusa,(0392) 366 48 36,Ecz. Özay Atamözlü
275,ÖZÇAĞ ECZANESİ,GAZİMAĞUSA,411 İsmet İnönü Bulvarı Salamis Yolu,(0392) 365 08 76,Ecz. Nalan Kansu
276,ÖZGE KALE ECZANESİ,GAZİMAĞUSA,"Şht.İbrahim Hasan Sok, Dükkan 4 China-Bazaar yanı - Günay taksi sırası, Ayluga Gazimağusa",(0392) 366 88 66,Ecz. Özge Kale
277,ÖZNERGİS ECZANESİ,GAZİMAĞUSA,Salamis Yolu Şıkm Prenses Karşısı,(0392) 365 24 92,Ecz. Necla Öznergis
278,PETEK ECZANESİ,GAZİMAĞUSA,Zafer Anıtı Ticaret Merkezi 3/4 Mağusa,(0392) 366 29 28,Ecz. Semra Gani
279,PHARMATOWN ECZANESİ,GAZİMAĞUSA,İsmet İnönü Sok. N0:12 Yeniboğaziçi,(0392) 378 95 06,Ecz. Himmet Soner
280,RANA YONTAR ECZANESİ,GAZİMAĞUSA,Şht. İbrahim Hasan sok. no:14 AK - UN Market yanı Çanakkale bölgesi. Gazimağusa,(0392) 366 19 19,Ecz. Rana Yontar
281,REZAN ECZANESİ,GAZİMAĞUSA,İsmet İnönü bulvarı Presidental Bulding Dük.N0:6 Gazimağusa,(0392) 365 69 11,Ecz. Rezan Mevlit
282,SAKARYA ECZANESİ,GAZİMAĞUSA,"Narli Sok., Mağusa Tıp Merkezi Hastanesi yanı, Sakarya, Gazimağusa",(0392) 365 29 89,Ecz. Tijen Coşar
283,SEMAHAT ATAYOL ECZANESİ,GAZİMAĞUSA,"Üç Çakırlar Cad. Canbulat Özgürlük Orta Okulu Yanı No: 4A Maraş, Gazimağusa",(0392) 366 91 93,Ecz. Semahat Atayol
284,SÜAY SEVİNÇ ECZANESİ,GAZİMAĞUSA,"Salamis Yolu No: 168A, Akay Saat yanı, Gazimağusa",(0392) 365 42 80,Ecz. Süay Sevinç
285,SÜMER 2 ECZANESİ,GAZİMAĞUSA,Otobüs Terminali B Blok N0:1 GaziMağusa,(0392) 366 37 93,Ecz. Ülfet Bilgekul
286,SÜMER ECZANESİ,GAZİMAĞUSA,"İsmet İnönü Bulvarı 258/A, DAÜ çemberi karşısı, Gazimağusa",(0392) 365 49 69,Ecz. Banu Tuzlalı
287,TANYA SALİMER ECZANESİ,GAZİMAĞUSA,"15 Ağustos Bulvarı, Canova Benzin istasyonu yanı, Baykal, Gazimağusa",(0392) 366 99 88,Ecz. Tanya Salimer
288,TARABYA ECZANESİ,GAZİMAĞUSA,"15 Ağustos Bulvarı No: 25A, Larnaka Yolu, Altuner Sağlık Merkezi ve Oykan petrol yanı, Gazimağusa",(0392) 366 36 07,Ecz. Yüksel Altuner
289,ULUÇAY ECZANESİ,GAZİMAĞUSA,"Mağusa Tıp Merkezi Hastanesi (Cyprus Central Hospital) Acil Servis giriş karşısı, Sivil Savunma yanı, Gazimağusa",(0392) 365 24 24,Ecz. Tezer Uluçay
290,UMUT ECZANESİ,GAZİMAĞUSA,"Salamis yolu, Çetin Alkan Apt. No: 2, Dumlupınar Spor Klübü yanı, Sulu Çember - Zafer Anıtı arası, Gazimağusa",(0392) 366 23 69,Ecz. Ayşe Ayman
291,UZAY ECZANESİ,GAZİMAĞUSA,"İsmet İnönü Bulvarı Halken 8 Apt No: 2, Zi̇raat Bankası karşısı - Özdi̇lek yanı, Gazimağusa",(0392) 365 56 56,Ecz. Çisem İçten
292,VELİ ATEŞ ECZANESİ,GAZİMAĞUSA,"Adsız Asker Sok. Noyan Apt. No:1, Salamis Yolu, Shoe For Me ayakkabı mağazasından içeri dönünce Merve kuaför yanı, Gazimağusa",(0932) 365 04 19,Ecz. Sema Ateş
293,VELİ NURLUÖZ ECZANESİ,GAZİMAĞUSA,"Döveç (48) Corner Park binası, Macro Süpermarket (yeni Lemar) arkası, Mağusa Arena Spor Kompleksi yanı, Sakarya, Gazimağusa",(0392) 365 36 31,Ecz. Veli Nurluöz
294,VEZİROĞLU ECZANESİ,GAZİMAĞUSA,Anafartalar Cad. Alibey Apt.N0:2 Karakol İlkokulu Yolu Karakol Gazimağusa,(0392) 365 69 77,Ecz. Fatma Veziroğlu
295,ZERİN VOLKAN ECZANESİ,GAZİMAĞUSA,İsmet İnönü Bulvarı Sosyal Konut Apt.Gazi Mağusa,(0392) 365 59 59,Ecz. Zerin Volkan
296,ZEYNEP ECZANESİ,GAZİMAĞUSA,"İsmet İnönü Bulvarı No: 7, Salamis Yolu, Sulu Çember yanı, Gazimağusa",(0392) 365 18 47,Ecz. Zeynep İlktaç
297,AKÇAY ECZANESİ,GÜZELYURT,"Naci Talat Caddesi No: 1, Akçay, Güzelyurt",(0392) 725 84 77,Ecz. Dilek Kara
298,AŞAR ECZANESİ (GÜZELYURT),GÜZELYURT,"Ecevit Cad.18/B, Güzelyurt",(0392) 714 21 93,Dr. Ecz. Özgür Karataşlı
299,AYCAN ECZANESİ,GÜZELYURT,Ecevit Cad. 4J Güzelyurt,(0392) 714 23 16,Ecz. Aycan Eşrefoğlu
300,CAMCIOĞLU ECZANESİ,GÜZELYURT,Şht.Mümür Dilaver Sok No:24 C Güzelyurt,(0392) 714 24 57,Ecz. Perin Camcıoğlu
301,DOĞA ECZANESİ,GÜZELYURT,Piyale Paşa Mah.No:121,(0392) 714 46 40,Ecz. Doğa Ünlüyol
302,DOĞUŞ TÜRKBAYOĞLU ECZANESİ,GÜZELYURT,"Şht. Hasan Cafer Sk. Dış Kapı No: 1, Güzelyurt",(0533) 836 43 58,Ecz. Doğuş Türkbayoğlu
303,EMİNE ŞENTÜRK ECZANESİ,GÜZELYURT,"Büyük Ada Sok No: 22, Güzelyurt",(0533) 851 58 21,Ecz. Emine Şentürk
304,ERİN ECZANESİ,GÜZELYURT,Kutlu Adalı Bulvarı N0:41 Lemar Dük.Güzelyurt,(0392) 714 70 52,Ecz. Erin Egesoy Kamer
305,FAİKA COŞKUN ECZANESİ,GÜZELYURT,Kalkanlı Cad. No:61/ C Kalkanlı,(0533) 882 22 68,Ecz. Faika Coşkun
306,GİLANLI ECZANESİ,GÜZELYURT,"Ecevit Cad. No: 120B, Güzelyurt",(0392) 714 47 90,Ecz. Ayten Gilanlıoğulları
307,GÜLSEN ECZANESİ,GÜZELYURT,Piyale Paşa Mahallesi Sanayi Sitesi No:7 Güzelyurt,(0392) 714 11 90,Ecz. Gülsen Ünlüyol
308,İLAYDA GÜLKAN ECZANESİ,GÜZELYURT,"Şht. Celal Bekiroğlu Sokak (Yalova Spor Klübü karşısı), Aşağı Bostancı",(0392) 714 60 22,Ecz. İlayda Gülkan
309,İLKİN SADRAZAM ECZANESİ,GÜZELYURT,Binatlıı Sok.N0:6 A/B Güzelyurt,(0392) 714 12 22,Ecz. İlkin Sadrazam
310,İNCİ ECZANESİ,GÜZELYURT,Kutlu Adalı Bulvarı N0: 1K Terminal karşısı Güzelyurt,(0392) 714 32 52,Ecz. İnci Dizgin Nazım
311,MERVE GÜMÜŞOK ECZANESİ,GÜZELYURT,İzzet Kombos Bulvarı No:148 Yukarı Bostancı Güzelyurt,(0392) 714 44 48,Ecz. Merve Gümüşok
312,NİLGÜN ECZANESİ,GÜZELYURT,25 Ecevit Cad. Güzelyurt,(0392) 714 38 47,Ecz. Nilgün Faruk
313,RESMİYE ESE ECZANESİ,GÜZELYURT,Ecevit Cad. N0:75/1 Güzelyurt,(0392) 714 45 18,Ecz. Resmiye Ese
314,SERCAN AVCI ECZANESİ,GÜZELYURT,Şht.Raşit Osman Sok.No:2 /E Güzelyurt,(0392) 714 48 94,Ecz. Sercan Avci
315,SEVİL ECZANESİ,GÜZELYURT,55 Ecevit Cad. Beşyol Güzelyurt,(0392) 714 35 91,Ecz. Mustafa Zeybekoğulları
316,SÜREYYA ÖZCOŞKUN ECZANESİ,GÜZELYURT,Şht.Mehmet Sokollu Sok.Lala Mustafa Paşa Mah. No:14 -A Güzelyurt,(0392) 714 20 00,Ecz. Süreyya Özcoşkun
317,UYUMSAL ECZANESİ,GÜZELYURT,Kutlu Adalı Bulvarı 3 A Güzelyurt,(0392) 714 30 05,Ecz.Ayşe Pilancı
318,ALTINCI ECZANESİ,LEFKE,ŞhT. Nejdet Levent Sok.Dük.No:4 A Denizli Lefke,(0548) 889 17 07,Ecz. Çağın Altıncı
319,AYŞE ALTINTUĞ ECZANESİ,LEFKE,Şht. Fuat Yakup Sok. No:7 Denizli Lefke,(0542) 872 69 74,Ecz. Ayşe Çizer
320,DERVİŞ KUTRET ECZANESİ,LEFKE,Dr.İzzet Salih Suphi Maydanı N0:5 Lefke,(0533) 882 94 56,Ecz. Derviş Kutret
321,DİLAN PUL ECZANESİ,LEFKE,Ecevit Cad. Şafak Apt. Dük. No:2 Yeşilyurt Lefke,(0392) 723 73 33,Ecz. Dilan Pul
322,HATİCE SOYER ECZANESİ,LEFKE,Cengizköy Lefke,(0548) 865 52 91,Ecz. Hatice Soyer
323,İLKSEN ECZANESİ,LEFKE,Belediye Dükkanları N0:18 Gemikonağı Lefke,(0392) 727 82 40,Ecz. İlksen Ahçıhoca
324,SADİYE TAŞAR ECZANESİ,LEFKE,Atatürk Cad. 26/A Lefke,(0392) 728 83 12,Ecz. Sadiye Taşar
325,SIDIKA UMAR ECZANESİ,LEFKE,"Menekşe Sok. No: 2/B, Gaziveren, Lefke",(0392) 723 79 97,Ecz. Sıdıka Umar
326,ŞİFA BILDIR ECZANESİ,LEFKE,Fuat Yakup Sok. Denizli N0:1 / 1 Lefke,(0533) 841 95 78,Ecz. Şifa Bıldır
327,ULUS ECZANESİ,LEFKE,Ecevit cad. N0:11 Lefke,(0392) 727 76 49,Ecz. Ulus Sabit
328,ESER AVCI ECZANESİ,ÜST MESARYA,Ögürlük Cad. No: 11/B Cihangir,(0533) 855 06 04,Ecz. Eser Avcı
329,GÖNÜL GÜRDAĞ ECZANESİ,ÜST MESARYA,Dr.Fazıl küçük Cad. No 30 Demirhan,(0539) 105 48 88,Ecz. Gönül Gürdağ
330,GÜLTEN VELİ ECZANESİ,ÜST MESARYA,79/B Cumhuriyet Cad.Cihangir Lefkoşa Mesarya,(0392) 232 35 00,Ecz. Gülten Veli
331,KEZBAN DOYGUNEL ECZANESİ,ÜST MESARYA,Atatürk Cad. N0: 2/ A Geçitkale Mağusa,(0392) 373 33 60,Ecz.Başak Sabiha Oduncuoğlu
332,MELİZ ECZANESİ,ÜST MESARYA,Lefkoşa Mağus Anayolu Demirhan,(0533) 872 42 62,Ecz. Bilgen Şimşek
333,ŞEHERLİOĞLU ECZANESİ,ÜST MESARYA,"30/Dük:1, Zafer Caddesi, Haspolat, Lefkoşa",(0392) 233 55 33,Ecz. Barış İzzet
334,SERDARLI ECZANESİ,ÜST MESARYA,Serdarlı Mağusa,(0392) 376 70 06,Ecz. Özlem Toydemir
335,TUFAN ECZANESİ,ÜST MESARYA,Çelik iş Merkezi Demirhan Lefkoşa,(0392) 232 48 15,Ecz. İsmet Tufan
336,VİJDAN BAYSAL ECZANESİ,ÜST MESARYA,"Mustafa Kemal Bulvarı Kıbrıslı Caddesi Lemon Country 34, Apt. No: 2, Minareliköy, Lefkoşa",(0548) 825 19 03,Ecz. Vijdan Baysal
337,YAPRAK POLAT ECZANESİ,ÜST MESARYA,Zafer Caddesi nOP:34 Haspolat Lefkoşa,(0533) 847 68 65,Ecz.Yaprak Polat
338,YÜKSEL ECZANESİ,ÜST MESARYA,"Sevgi Sokak, Minareliköy Milli Homes 34 No: 4, Değirmenlik, Akıncılar, Lefkoşa",(0542) 875 21 12,Ecz. Yüksel Esma Arslaner
339,BUĞRA ECZANESİ,ALT MESARYA,"Dr. Fazıl Küçük Cad. Akdoğan, Gazimağusa",(0392) 377 88 25,Ecz. Buğra Cömert
340,DOĞUŞ ACARÖZ ECZANESİ,ALT MESARYA,Atatürk Cad. No:1 İnönü,(0548) 871 72 59,Ecz. Doğuş Acaröz
341,DÖRTYOL ECZANESİ,ALT MESARYA,Recep Tayip Erdoğan Cad. N0:C-1 Dörtyol Mağusa,(0542) 851 64 34,Ecz. Ediz Toydemir
342,GÜNER BİNBOĞA ECZANESİ,ALT MESARYA,"Atatürk Cad. No: 4, Paşaköy, Alt Mesarya, Gazimağusa",(0392) 236 91 00,Ecz. Güner Binboğa
343,GÜRSOY ECZANESİ,ALT MESARYA,Akdoğan Mağusa,(0392) 377 90 69,Ecz. Ayberk Gürsoy
344,HERA AKESEN ECZANESİ,ALT MESARYA,Şht.Hüseyin Kafa Cad. No:2 Beyarmudu Pergama,(0542) 862 05 44,Ecz. Ceren Celal
345,HOCANIN ECZANESİ,ALT MESARYA,Belediye Dük No:1 Vadili,(0392) 397 82 22,Ecz. Türkay Hocanın
346,KINAY ECZANESİ,ALT MESARYA,"Mersinli Sok. No: C/4, Türkmenköy, Gazimağusa",(0392) 377 70 70,Ecz. Gökcen Kınay
347,KUDRET ECZANESİ,ALT MESARYA,Vatan Cad. N0:95 Vadili Mağusa,(0392) 397 7 00,Ecz. Kardelen Varanoğluları
348,MEHMET HOCA ECZANESİ,ALT MESARYA,Özgürlük Cad. Türkmenköy No:2 Beyarmudu Belediyesi,(0533) 873 30 98,Ecz. Ali Hoca
349,SERVET GÖKŞİN ECZANESİ,ALT MESARYA,Atatürk Caddesi No:72 Dilekkaya Lefkoşa,(0533) 830 84 01,Ecz. Servet Gökşin
350,TURAN CEYDA ECZANESİ,ALT MESARYA,"Alt Ekmekçi Sok. No: 8, Gaziköy, Alt Mesarya, Gazimağusa",(0392) 236 83 80,Ecz. Turan Ceyda
351,VADİLİ ECZANESİ,ALT MESARYA,"Vatan Cad. No: 95, Vadili, Gazimağusa",(0392) 397 77 33,Ecz. Melek Tilki
352,AVİCENNA ECZANESİ,İSKELE,"İskele Boğaz anayolu, Bereket Sokak, Petek pastanesi̇ yanı, İskele",(0542) 855 00 15,Ecz. Omar A. Hwaileh
353,BUSE ULUÇAY ECZANESİ,İSKELE,"Şht. Karter Cad. Cevizli Dış Kapı 30A, İskele",(0533) 840 50 68,Ecz. Buse Uluçay
354,ERDEM SURURİ ECZANESİ,İSKELE,"Şht. Günay Bey Caddesi No: 13/C, İskele",(0548) 844 12 78,Ecz. Erdem Sururi Ayhan
355,ERSU ADAN ECZANESİ,İSKELE,Dr.Fazıl Küçük Bulvarı Noyanlar Sitesi 8 Dük.No:4 Ötüken İskele,(0392) 378 88 87,Ecz. Ersu Adan
356,GÖKBERK ALP YAKAR ECZANESİ,İSKELE,Mekanizi Cad. Royal Sun Residance İskele,(0539) 109 95 77,Ecz. Gökberk Alp Yakar
357,İSKELE ECZANESİ,İSKELE,"Şht. İlker Karter Cad. Cevizli, 11 nolu sokak No: 3/A, İskele",(0533) 831 45 13,Ecz. Arzu Baysal
358,MEHMET İLBAN ECZANESİ,İSKELE,"Atatürk Cad. Ada Karanfil Sok. No: 9D, Harup Fabrikası karşısı, Boğaz, İskele",(0533) 834 82 51,Ecz. Mehmet İlban
359,MEVLÜT KAÇMAZ ECZANESİ,İSKELE,"Makenzi Cad. Ezgi Sok. Dumika Const.Ltd. Dük. No: 10, Cevizli, İskele",(0548) 860 55 54,Ecz. Mevlüt Kaçmaz
360,NALAN ECZANESİ,İSKELE,Kordonboyu Cad.N0:35/B Bahçeler İskele,(0392) 371 40 06,Ecz. Nalan İzzigil
361,ÖZBİRTAN ECZANESİ,İSKELE,Dt.Temel Zeki Cad. Arken B 2 Apt. N0:3 İskele,(0392) 371 22 24,Ecz. Pembe Özbirtan
362,SELİN ECZANESİ,İSKELE,Şht.Mustafa Orhan Cad.No:5 iskele,(0533) 884 86 59,Ecz. Hasan Yorgancı
363,SEVİLAY PIRLANTA ECZANESİ,İSKELE,"Şht. Davut Sadık Sok., İskele",(0392) 371 35 02,Ecz. Sevilay Pırtanta
364,SULTAN TOPEL ECZANESİ,İSKELE,"Makenzi Cad. Dük. No: 6, Ziraat Bankası yanı, İskele",(0392) 330 17 20,Ecz. Sultan Topel
365,BESİM SEVİNDİK ECZANESİ,KARPAZ,8 Ağustos Cad. Dük.No:3 Yeni Erenköy,(0533) 855 72 12,Ecz. Besim Sevindik
366,FATMA KAHYAOĞLU ECZANESİ,KARPAZ,Livadya Apt.N0:3 Çayırova İskele,(0533) 821 96 06,Ecz. İbrahim Kahyaoğlu
367,GÜRSEL 2 ECZANESİ,KARPAZ,"Kanuni Sultan Süleyman Sok. Polatpaşa Dış Kapı No: 4, Dipkarpaz",(0392) 372 21 11,Ecz. Cengiz Bereket
368,KARPAZIN ECZANESİ,KARPAZ,Şht.Mustafa H.Akdeniz Sokak No:4 YeniErenköy,(0539) 112 38 02,Ecz. İbrahim Avcı
369,MELEK İBRAHİM ECZANESİ,KARPAZ,Öztürk Cad.N0:10 Mehmetçik İskele,(0392) 375 53 66,Ecz. Şifa Cömert
370,OLGUN KAHYAOĞLU ECZANESİ,KARPAZ,Ada Cad. Bafra No: 37 / E Mehmetçik - Karpaz,(0533) 849 99 46,Ecz. Melek Kahyaoğlu
371,SAKİNER ECZANESİ,KARPAZ,"Yeni Erenköy, Karpaz, Gazimağusa",(0392) 374 43 56,Ecz. Nuran Coşkun
